STARLINK-36413          
1 67338U 26003E   26018.58335648 -.01362826  00000+0 -49522-2 0  9990
2 67338  42.9979 157.3104 0001311 274.8304 237.1759 15.90145244  2612
STARLINK-36451          
1 67339U 26003F   26018.58335648 -.01368826  00000+0 -49669-2 0  9999
2 67339  42.9980 157.3047 0001436 277.1497 236.9689 15.90183011  2611
STARLINK-36339          
1 67340U 26003G   26018.58335648 -.01376104  00000+0 -49882-2 0  9996
2 67340  42.9979 157.2988 0001243 274.9181 241.7364 15.90220029  2610
STARLINK-36453          
1 67341U 26003H   26018.58335648 -.01388213  00000+0 -50281-2 0  9996
2 67341  42.9981 157.2920 0001265 279.9508 239.1532 15.90259310  2615
STARLINK-36432          
1 67342U 26003J   26018.58335648 -.01391078  00000+0 -50307-2 0  9999
2 67342  42.9980 157.2868 0001349 277.9292 243.4067 15.90294065  2603
STARLINK-36458          
1 67343U 26003K   26018.58335648 -.01395254  00000+0 -50384-2 0  9995
2 67343  42.9980 157.2822 0001193 276.8980 246.2973 15.90332682  2619
STARLINK-36422          
1 67344U 26003L   26018.58335648 -.01401638  00000+0 -50543-2 0  9997
2 67344  42.9977 157.2755 0001386 270.4256 255.2773 15.90370110  2606
STARLINK-35676          
1 67345U 26003M   26018.58335648 -.01408556  00000+0 -50740-2 0  9993
2 67345  42.9979 157.2697 0001128 278.0704 250.0258 15.90407276  2605
STARLINK-36472          
1 67346U 26003N   26018.58335648 -.01416572  00000+0 -50955-2 0  9999
2 67346  42.9980 157.2643 0001190 274.1129 255.9534 15.90450781  2606
STARLINK-36420          
1 67347U 26003P   26018.58335648 -.01425553  00000+0 -51129-2 0  9993
2 67347  42.9981 157.2533 0001209 277.7841 256.7663 15.90524785  2616
STARLINK-36467          
1 67348U 26003Q   26018.58335648 -.01425444  00000+0 -51217-2 0  9991
2 67348  42.9981 157.2586 0001256 276.3262 256.2287 15.90489494  2613
STARLINK-36457          
1 67349U 26003R   26018.58335648 -.01432716  00000+0 -51326-2 0  9993
2 67349  42.9982 157.2469 0001105 272.6039 264.5256 15.90563154  2613
