CCSDS_OMM_VERS = 2.0
CREATION_DATE  = 
ORIGINATOR     = 

OBJECT_NAME    = STARLINK-36413
OBJECT_ID      = 2026-003E
CENTER_NAME    = EARTH
REF_FRAME      = TEME
TIME_SYSTEM    = UTC
MEAN_ELEMENT_THEORY = SGP/SGP4

EPOCH          = 2026-01-18T14:00:01.999872
MEAN_MOTION    = 15.90145244
ECCENTRICITY   = .0001311
INCLINATION    = 42.9979
RA_OF_ASC_NODE = 157.3104
ARG_OF_PERICENTER = 274.8304
MEAN_ANOMALY   = 237.1759

EPHEMERIS_TYPE = 0
CLASSIFICATION_TYPE = U
NORAD_CAT_ID   = 67338
ELEMENT_SET_NO = 999
REV_AT_EPOCH   = 261
BSTAR          = -.49521586E-2
MEAN_MOTION_DOT = -.1362826E-1
MEAN_MOTION_DDOT = 0

CCSDS_OMM_VERS = 2.0
CREATION_DATE  = 
ORIGINATOR     = 

OBJECT_NAME    = STARLINK-36451
OBJECT_ID      = 2026-003F
CENTER_NAME    = EARTH
REF_FRAME      = TEME
TIME_SYSTEM    = UTC
MEAN_ELEMENT_THEORY = SGP/SGP4

EPOCH          = 2026-01-18T14:00:01.999872
MEAN_MOTION    = 15.90183011
ECCENTRICITY   = .0001436
INCLINATION    = 42.9980
RA_OF_ASC_NODE = 157.3047
ARG_OF_PERICENTER = 277.1497
MEAN_ANOMALY   = 236.9689

EPHEMERIS_TYPE = 0
CLASSIFICATION_TYPE = U
NORAD_CAT_ID   = 67339
ELEMENT_SET_NO = 999
REV_AT_EPOCH   = 261
BSTAR          = -.49669411E-2
MEAN_MOTION_DOT = -.1368826E-1
MEAN_MOTION_DDOT = 0

CCSDS_OMM_VERS = 2.0
CREATION_DATE  = 
ORIGINATOR     = 

OBJECT_NAME    = STARLINK-36339
OBJECT_ID      = 2026-003G
CENTER_NAME    = EARTH
REF_FRAME      = TEME
TIME_SYSTEM    = UTC
MEAN_ELEMENT_THEORY = SGP/SGP4

EPOCH          = 2026-01-18T14:00:01.999872
MEAN_MOTION    = 15.90220029
ECCENTRICITY   = .00012433
INCLINATION    = 42.9979
RA_OF_ASC_NODE = 157.2988
ARG_OF_PERICENTER = 274.9181
MEAN_ANOMALY   = 241.7364

EPHEMERIS_TYPE = 0
CLASSIFICATION_TYPE = U
NORAD_CAT_ID   = 67340
ELEMENT_SET_NO = 999
REV_AT_EPOCH   = 261
BSTAR          = -.49881809E-2
MEAN_MOTION_DOT = -.1376104E-1
MEAN_MOTION_DDOT = 0

CCSDS_OMM_VERS = 2.0
CREATION_DATE  = 
ORIGINATOR     = 

OBJECT_NAME    = STARLINK-36453
OBJECT_ID      = 2026-003H
CENTER_NAME    = EARTH
REF_FRAME      = TEME
TIME_SYSTEM    = UTC
MEAN_ELEMENT_THEORY = SGP/SGP4

EPOCH          = 2026-01-18T14:00:01.999872
MEAN_MOTION    = 15.90259310
ECCENTRICITY   = .00012659
INCLINATION    = 42.9981
RA_OF_ASC_NODE = 157.2920
ARG_OF_PERICENTER = 279.9508
MEAN_ANOMALY   = 239.1532

EPHEMERIS_TYPE = 0
CLASSIFICATION_TYPE = U
NORAD_CAT_ID   = 67341
ELEMENT_SET_NO = 999
REV_AT_EPOCH   = 261
BSTAR          = -.50281152E-2
MEAN_MOTION_DOT = -.1388213E-1
MEAN_MOTION_DDOT = 0

CCSDS_OMM_VERS = 2.0
CREATION_DATE  = 
ORIGINATOR     = 

OBJECT_NAME    = STARLINK-36432
OBJECT_ID      = 2026-003J
CENTER_NAME    = EARTH
REF_FRAME      = TEME
TIME_SYSTEM    = UTC
MEAN_ELEMENT_THEORY = SGP/SGP4

EPOCH          = 2026-01-18T14:00:01.999872
MEAN_MOTION    = 15.90294065
ECCENTRICITY   = .00013499
INCLINATION    = 42.9980
RA_OF_ASC_NODE = 157.2868
ARG_OF_PERICENTER = 277.9292
MEAN_ANOMALY   = 243.4067

EPHEMERIS_TYPE = 0
CLASSIFICATION_TYPE = U
NORAD_CAT_ID   = 67342
ELEMENT_SET_NO = 999
REV_AT_EPOCH   = 260
BSTAR          = -.50306547E-2
MEAN_MOTION_DOT = -.1391078E-1
MEAN_MOTION_DDOT = 0

CCSDS_OMM_VERS = 2.0
CREATION_DATE  = 
ORIGINATOR     = 

OBJECT_NAME    = STARLINK-36458
OBJECT_ID      = 2026-003K
CENTER_NAME    = EARTH
REF_FRAME      = TEME
TIME_SYSTEM    = UTC
MEAN_ELEMENT_THEORY = SGP/SGP4

EPOCH          = 2026-01-18T14:00:01.999872
MEAN_MOTION    = 15.90332682
ECCENTRICITY   = .00011931
INCLINATION    = 42.9980
RA_OF_ASC_NODE = 157.2822
ARG_OF_PERICENTER = 276.8980
MEAN_ANOMALY   = 246.2973

EPHEMERIS_TYPE = 0
CLASSIFICATION_TYPE = U
NORAD_CAT_ID   = 67343
ELEMENT_SET_NO = 999
REV_AT_EPOCH   = 261
BSTAR          = -.50383778E-2
MEAN_MOTION_DOT = -.1395254E-1
MEAN_MOTION_DDOT = 0

CCSDS_OMM_VERS = 2.0
CREATION_DATE  = 
ORIGINATOR     = 

OBJECT_NAME    = STARLINK-36422
OBJECT_ID      = 2026-003L
CENTER_NAME    = EARTH
REF_FRAME      = TEME
TIME_SYSTEM    = UTC
MEAN_ELEMENT_THEORY = SGP/SGP4

EPOCH          = 2026-01-18T14:00:01.999872
MEAN_MOTION    = 15.90370110
ECCENTRICITY   = .00013863
INCLINATION    = 42.9977
RA_OF_ASC_NODE = 157.2755
ARG_OF_PERICENTER = 270.4256
MEAN_ANOMALY   = 255.2773

EPHEMERIS_TYPE = 0
CLASSIFICATION_TYPE = U
NORAD_CAT_ID   = 67344
ELEMENT_SET_NO = 999
REV_AT_EPOCH   = 260
BSTAR          = -.50543484E-2
MEAN_MOTION_DOT = -.1401638E-1
MEAN_MOTION_DDOT = 0

CCSDS_OMM_VERS = 2.0
CREATION_DATE  = 
ORIGINATOR     = 

OBJECT_NAME    = STARLINK-35676
OBJECT_ID      = 2026-003M
CENTER_NAME    = EARTH
REF_FRAME      = TEME
TIME_SYSTEM    = UTC
MEAN_ELEMENT_THEORY = SGP/SGP4

EPOCH          = 2026-01-18T14:00:01.999872
MEAN_MOTION    = 15.90407276
ECCENTRICITY   = .00011281
INCLINATION    = 42.9979
RA_OF_ASC_NODE = 157.2697
ARG_OF_PERICENTER = 278.0704
MEAN_ANOMALY   = 250.0258

EPHEMERIS_TYPE = 0
CLASSIFICATION_TYPE = U
NORAD_CAT_ID   = 67345
ELEMENT_SET_NO = 999
REV_AT_EPOCH   = 260
BSTAR          = -.50740488E-2
MEAN_MOTION_DOT = -.1408556E-1
MEAN_MOTION_DDOT = 0

CCSDS_OMM_VERS = 2.0
CREATION_DATE  = 
ORIGINATOR     = 

OBJECT_NAME    = STARLINK-36472
OBJECT_ID      = 2026-003N
CENTER_NAME    = EARTH
REF_FRAME      = TEME
TIME_SYSTEM    = UTC
MEAN_ELEMENT_THEORY = SGP/SGP4

EPOCH          = 2026-01-18T14:00:01.999872
MEAN_MOTION    = 15.90450781
ECCENTRICITY   = .00011908
INCLINATION    = 42.9980
RA_OF_ASC_NODE = 157.2643
ARG_OF_PERICENTER = 274.1129
MEAN_ANOMALY   = 255.9534

EPHEMERIS_TYPE = 0
CLASSIFICATION_TYPE = U
NORAD_CAT_ID   = 67346
ELEMENT_SET_NO = 999
REV_AT_EPOCH   = 260
BSTAR          = -.50954961E-2
MEAN_MOTION_DOT = -.1416572E-1
MEAN_MOTION_DDOT = 0

CCSDS_OMM_VERS = 2.0
CREATION_DATE  = 
ORIGINATOR     = 

OBJECT_NAME    = STARLINK-36420
OBJECT_ID      = 2026-003P
CENTER_NAME    = EARTH
REF_FRAME      = TEME
TIME_SYSTEM    = UTC
MEAN_ELEMENT_THEORY = SGP/SGP4

EPOCH          = 2026-01-18T14:00:01.999872
MEAN_MOTION    = 15.90524785
ECCENTRICITY   = .00012097
INCLINATION    = 42.9981
RA_OF_ASC_NODE = 157.2533
ARG_OF_PERICENTER = 277.7841
MEAN_ANOMALY   = 256.7663

EPHEMERIS_TYPE = 0
CLASSIFICATION_TYPE = U
NORAD_CAT_ID   = 67347
ELEMENT_SET_NO = 999
REV_AT_EPOCH   = 261
BSTAR          = -.51128941E-2
MEAN_MOTION_DOT = -.1425553E-1
MEAN_MOTION_DDOT = 0

CCSDS_OMM_VERS = 2.0
CREATION_DATE  = 
ORIGINATOR     = 

OBJECT_NAME    = STARLINK-36467
OBJECT_ID      = 2026-003Q
CENTER_NAME    = EARTH
REF_FRAME      = TEME
TIME_SYSTEM    = UTC
MEAN_ELEMENT_THEORY = SGP/SGP4

EPOCH          = 2026-01-18T14:00:01.999872
MEAN_MOTION    = 15.90489494
ECCENTRICITY   = .00012561
INCLINATION    = 42.9981
RA_OF_ASC_NODE = 157.2586
ARG_OF_PERICENTER = 276.3262
MEAN_ANOMALY   = 256.2287

EPHEMERIS_TYPE = 0
CLASSIFICATION_TYPE = U
NORAD_CAT_ID   = 67348
ELEMENT_SET_NO = 999
REV_AT_EPOCH   = 261
BSTAR          = -.51216706E-2
MEAN_MOTION_DOT = -.1425444E-1
MEAN_MOTION_DDOT = 0

CCSDS_OMM_VERS = 2.0
CREATION_DATE  = 
ORIGINATOR     = 

OBJECT_NAME    = STARLINK-36457
OBJECT_ID      = 2026-003R
CENTER_NAME    = EARTH
REF_FRAME      = TEME
TIME_SYSTEM    = UTC
MEAN_ELEMENT_THEORY = SGP/SGP4

EPOCH          = 2026-01-18T14:00:01.999872
MEAN_MOTION    = 15.90563154
ECCENTRICITY   = .00011056
INCLINATION    = 42.9982
RA_OF_ASC_NODE = 157.2469
ARG_OF_PERICENTER = 272.6039
MEAN_ANOMALY   = 264.5256

EPHEMERIS_TYPE = 0
CLASSIFICATION_TYPE = U
NORAD_CAT_ID   = 67349
ELEMENT_SET_NO = 999
REV_AT_EPOCH   = 261
BSTAR          = -.51325754E-2
MEAN_MOTION_DOT = -.1432716E-1
MEAN_MOTION_DDOT = 0

